ONEWEB-0244             
1 48776U 21045K   23059.25056602  .00000483  00000+0  12484-2 0  9994
2 48776  87.9200 139.0304 0001376  94.7620 265.3667 13.15548878 87667
ONEWEB-0244             
1 48776U 21045K   23059.78296756  .00000097  00000+0  22304-3 0  9992
2 48776  87.9197 138.9251 0001401  95.4702 264.6588 13.15549765 86613
ONEWEB-0244             
1 48776U 21045K   23060.23930947  .00000034  00000+0  57654-4 0  9999
2 48776  87.9199 138.8350 0001389  95.2854 264.8434 13.15551659 86678
ONEWEB-0244             
1 48776U 21045K   23061.15199516 -.00000004  00000+0 -45567-4 0  9999
2 48776  87.9198 138.6549 0001372  95.3556 264.7731 13.15552150 87911
ONEWEB-0244             
1 48776U 21045K   23061.60833878 -.00000043  00000+0 -14838-3 0  9994
2 48776  87.9197 138.5646 0001366  94.4839 265.6447 13.15551791 86850
ONEWEB-0244             
1 48776U 21045K   23062.29285276  .00000018  00000+0  14963-4 0  9993
2 48776  87.9197 138.4296 0001362  95.0474 265.0812 13.15552435 86944
ONEWEB-0244             
1 48776U 21045K   23062.29285276  .00000018  00000+0  14963-4 0  9993
2 48776  87.9197 138.4296 0001362  95.0474 265.0812 13.15552435 88069
ONEWEB-0244             
1 48776U 21045K   23062.90130970  .00000144  00000+0  34949-3 0  9996
2 48776  87.9197 138.3097 0001380  95.9404 264.1883 13.15552648 87028
